#dP2018 12 17  0  0  0.00000000      96 __u+U ITR00 FIT  IAC
## 2032  86400.00000000   900.00000000 58469 0.0000000000000
+   92   C01C02C03C04C05C06C07C08C09C10C11C12C13C14C30C32E01
+        E02E03E04E05E07E08E09E11E12E13E14E15E18E19E21E24E25
+        E26E27E30G01G02G03G04G05G06G07G08G09G10G11G12G13G14
+        G15G16G17G18G19G20G21G22G23G24G25G26G27G28G29G30G31
+        G32R01R02R03R04R05R07R08R09R10R11R13R14R15R16R17R18
+        R19R20R21R22R23R24R26  0  0  0  0  0  0  0  0  0  0
++        12 12 12 12 12  9  8  8  8  8  7  8  9  8 11 13  5
++         5  5  5  5  5  5  6  5  5  6  5  6  5  5  5  6  5
++         5  5  5  3  3  3  4  4  3  3  3  3  4  3  3  4  4
++         3  3  3  3  3  4  3  3  3  4  4  3  3  3  3  3  4
++         4  6  6  5  5  6  6  6  5  5  5  5  5  5  5  5  5
++         5  5  5  5  5  6  8  0  0  0  0  0  0  0  0  0  0
%c M  cc GPS ccc cccc cccc cccc cccc ccccc ccccc ccccc ccccc
%c cc cc ccc ccc cccc cccc cccc cccc ccccc ccccc ccccc ccccc
%f  0.0000000  0.000000000  0.00000000000  0.000000000000000
%f  0.0000000  0.000000000  0.00000000000  0.000000000000000
%i    0    0    0    0      0      0      0      0         0
%i    0    0    0    0      0      0      0      0         0
/*                                                          
/*   RSA / INFORMATION & ANALYSIS CENTER (IAC) OF MCC       
/*   ULTRA-RAPID DETERMINATION                              
/* PCV:IGS14_2029 OL/AL:FES2004  NONE     YN ORB:CoN CLK:CoN
*  2018 12 17  9  0  0.00000000
PC01 -32343.296356  27076.922128   -258.660701    -28.495508
PC02   4408.704487  41895.424418   -735.693780   -177.097076
PC03 -14719.207782  39490.760587   -388.881962   -183.208172
PC04 -39662.498648  14382.542124   -264.297207   -251.585509
PC05  21885.281570  36020.577592   -710.377576     32.913324
PC06 -24657.332041  29930.417297  16408.056500    163.268879
PC07 -11349.835644  35886.128756  19574.534355   -187.881502
PC08 -10459.210640  19315.724482 -35921.027364     64.396574
PC09 -10442.606140  29521.429885  28257.287122    372.994823
PC10    340.713045  41987.642464   5793.418443   -328.501238
PC11  11243.339659 -14807.296009  20846.327409    -91.685199
PC12  27754.538428  -1624.276544  -1654.600917    281.237997
PC13   3127.055260  25892.063079 -33020.949815   -433.430103
PC14  16020.668993 -21226.686702   8594.429620    481.855367
PC30 -19917.733913  12707.173107 -14832.476479 999999.999999
PC32      0.000000      0.000000      0.000000 999999.999999
PE01  -1441.870642  27000.445136  12048.844882   -500.816903
PE02   1399.676700 -27027.369677 -11997.793534     39.489254
PE03  12039.988699 -23937.778221 -12570.822486   -111.696622
PE04   6413.342917  16934.517057  23411.773509   -180.718945
PE05  23572.454534 -16964.743336   5713.619662    141.125669
PE07 -21269.974319     90.089705 -20589.417820    -95.205160
PE08  -6537.807879 -16727.511935 -23531.631461   6441.832410
PE09  21167.740426   -345.547392  20680.669629   6586.027919
PE11  28609.098910   7598.576408    539.910237   5716.491979
PE12  17136.928302  16792.893016 -17333.641246   5735.397282
PE13 -28620.343259  -7549.003504   -381.949265    276.651613
PE14  -3004.986350  21460.984604 -23579.448142   6473.690535
PE15 -17590.489885 -16565.414674  17111.832783    823.657258
PE18   9992.242586 -16232.690260  15122.569252   5676.210570
PE19 -13670.103269  23869.446632  10924.443457     -9.824102
PE21 -13375.029715  11200.416156  23915.569697   -509.780415
PE24  17254.216018  10450.491115 -21659.936991   6334.309463
PE25  13384.522441 -11162.190941 -23915.803756   1951.674485
PE26 -23132.739337   5739.914955 -17552.500104   5126.153694
PE27 -17244.863671 -11016.158762  21396.972056    568.677363
PE30 -11127.145256 -26572.846385   6823.631302   5263.345332
PG01  22496.412098  13582.283147   4689.044345   -130.236912
PG02  -9818.724716 -19901.106029  15333.274995    -88.005199
PG03  13660.960383   8572.161947  21074.806424    170.249539
PG04  -3208.757846  17466.969124 -19818.871740   -101.862808
PG05  -3823.926165 -24586.404811  -9118.660023      0.428957
PG06   3755.680812 -15416.830810  21333.717773    314.794800
PG07  20713.542822   1644.257613 -16559.015924     69.004807
PG08  13492.669116   9697.800208 -20710.072237   -125.861461
PG09  25174.394732  -6852.710002   4956.234208    482.290053
PG10 -11205.190062  20753.787079 -11981.261418    150.331208
PG11  23758.993171  10236.830233  -6008.048380   -687.564080
PG12 -11150.370045 -12780.726139  20294.687464    283.845995
PG13  -5112.848964 -14256.995828 -21936.803309    -81.312892
PG14 -11094.313420  16583.566299  17743.993562    -94.512188
PG15 -17292.737378  -7251.524848 -19197.735029   -335.929231
PG16    763.906402  24715.547436  -9252.407597     -7.126186
PG17  19449.814027 -14550.776442  11016.731270    -17.470601
PG18  18818.486250  18135.144519  -5627.920439      6.350329
PG19  11943.387578 -15759.580391  17494.947977   -373.013079
PG20 -14230.636286  12451.365424 -18722.823756    520.053811
PG21 -18870.857304   2443.927804 -17695.746256   -285.846505
PG22  12082.722856  16165.176949  17517.734906   -600.678499
PG23  23022.417704   1072.894705  13858.564045   -203.286609
PG24 -21730.091498 -15577.645893   -363.306865    -59.593412
PG25 -14946.930026   -278.058259  21754.245739   -692.436481
PG26  -3863.306810  26158.745995   1246.617164     70.110689
PG27   2691.294023  14852.107246 -21915.231808    -33.659837
PG28  12945.357280 -19105.617727 -12591.455181    758.813581
PG29 -25249.456173   3199.369128   7573.869105    313.648057
PG30  13261.723615  -8935.574221 -21208.276279    -21.099872
PG31  -1693.441792  16936.981625  20291.740148     72.261142
PG32 -17298.469486  16266.146200  11836.463305   -315.121532
PR01   6631.264724   9751.161856  22613.288349     36.568647
PR02  16459.805773  -9341.818737  17159.206538    344.834109
PR03  15078.105859 -20563.370093   1332.354501    151.898832
PR04   4530.126068 -19627.499114 -15653.203772    287.769924
PR05  -7848.471208  -7689.901457 -23019.216170     17.878182
PR07 -14864.276921  20690.095669   -766.652001    -53.894143
PR08  -5039.386980  19902.798325  15175.705244     19.974702
PR09 -12441.169934  -1233.286611  22240.000368     44.190034
PR10  -3908.178151  14449.619492  20660.460493     37.819487
PR11   7359.061063  23514.376963   6701.792416    -50.435259
PR13  12604.799302   2275.931547 -22073.194720    -17.973164
PR14   4056.976107 -14490.533302 -20579.247901     34.059679
PR15  -6944.960887 -23364.194766  -7508.518690     98.901742
PR16 -14315.357235 -18825.908024   9690.593712    108.960846
PR17  15693.276233  -7240.781219  18756.715694    188.595374
PR18  -2114.095411 -10717.305241  23065.032385     28.247205
PR19 -18844.071349  -8793.201751  14782.491961    -62.138126
PR20 -25193.700729  -1197.034810  -3647.024845   -362.599741
PR21 -15296.918333   7336.458358 -19054.961823    -20.348436
PR22   4942.091543  10729.965870 -22615.384502    -64.443090
PR23  22031.451891   6967.514114 -10804.203675    197.358748
PR24  25007.402291     68.985773   5036.449506   -175.008554
PR26 -25413.958303  -1558.346741  -1749.945409     10.544184
EOF
